{"type": "FeatureCollection", "features": [ {"type": "Feature", "properties": {"norad_id": 32384, "name": "GPS BIIRM-5 (PRN 29)", "group": "gps-ops", "lat": 6.352910312962489, "lon": 96.92884154170487, "alt_km": 20095.890373985934, "timestamp": "2025-12-19T06:59:44.167152+00:00", "meta": {"OBJECT_NAME": "GPS BIIRM-5 (PRN 29)", "OBJECT_ID": "2007-062A", "EPOCH": "2025-12-18T19:12:42.092352", "MEAN_MOTION": 2.00577688, "ECCENTRICITY": 0.00322662, "INCLINATION": 55.1769, "RA_OF_ASC_NODE": 281.4029, "ARG_OF_PERICENTER": 162.2283, "MEAN_ANOMALY": 15.3827, "EPHEMERIS_TYPE": 0, "CLASSIFICATION_TYPE": "U", "NORAD_CAT_ID": 32384, "ELEMENT_SET_NO": 999, "REV_AT_EPOCH": 13189, "BSTAR": 0, "MEAN_MOTION_DOT": -4.1e-07, "MEAN_MOTION_DDOT": 0}, "tle": {"line1": "1 32384U 07062A   25352.80048718 -.00000041  00000+0  00000+0 0  9992", "line2": "2 32384  55.1769 281.4029 0032266 162.2283  15.3827  2.00577688131895"}}, "geometry": {"type": "Point", "coordinates": [96.92884154170487, 6.352910312962489]}}, {"type": "Feature", "properties": {"norad_id": 32711, "name": "GPS BIIRM-6 (PRN 07)", "group": "gps-ops", "lat": 54.12857500438096, "lon": -104.12730862099195, "alt_km": 20638.629404660296, "timestamp": "2025-12-19T06:59:44.167164+00:00", "meta": {"OBJECT_NAME": "GPS BIIRM-6 (PRN 07)", "OBJECT_ID": "2008-012A", "EPOCH": "2025-12-18T15:45:34.322400", "MEAN_MOTION": 2.00565916, "ECCENTRICITY": 0.02026894, "INCLINATION": 54.4778, "RA_OF_ASC_NODE": 157.1367, "ARG_OF_PERICENTER": 245.0129, "MEAN_ANOMALY": 112.867, "EPHEMERIS_TYPE": 0, "CLASSIFICATION_TYPE": "U", "NORAD_CAT_ID": 32711, "ELEMENT_SET_NO": 999, "REV_AT_EPOCH": 13013, "BSTAR": 0, "MEAN_MOTION_DOT": 7e-07, "MEAN_MOTION_DDOT": 0}, "tle": {"line1": "1 32711U 08012A   25352.65664725  .00000070  00000+0  00000+0 0  9998", "line2": "2 32711  54.4778 157.1367 0202689 245.0129 112.8670  2.00565916130138"}}, "geometry": {"type": "Point", "coordinates": [-104.12730862099195, 54.12857500438096]}}, {"type": "Feature", "properties": {"norad_id": 35752, "name": "GPS BIIRM-8 (PRN 05)", "group": "gps-ops", "lat": 47.9596238001287, "lon": 166.3539859376255, "alt_km": 20063.17521890403, "timestamp": "2025-12-19T06:59:44.167175+00:00", "meta": {"OBJECT_NAME": "GPS BIIRM-8 (PRN 05)", "OBJECT_ID": "2009-043A", "EPOCH": "2025-12-18T04:21:14.473728", "MEAN_MOTION": 2.00565462, "ECCENTRICITY": 0.00516833, "INCLINATION": 56.0947, "RA_OF_ASC_NODE": 34.5684, "ARG_OF_PERICENTER": 81.8123, "MEAN_ANOMALY": 312.8651, "EPHEMERIS_TYPE": 0, "CLASSIFICATION_TYPE": "U", "NORAD_CAT_ID": 35752, "ELEMENT_SET_NO": 999, "REV_AT_EPOCH": 11973, "BSTAR": 0, "MEAN_MOTION_DOT": -7.2e-07, "MEAN_MOTION_DDOT": 0}, "tle": {"line1": "1 35752U 09043A   25352.18141752 -.00000072  00000+0  00000+0 0  9992", "line2": "2 35752  56.0947  34.5684 0051683  81.8123 312.8651  2.00565462119738"}}, "geometry": {"type": "Point", "coordinates": [166.3539859376255, 47.9596238001287]}}, {"type": "Feature", "properties": {"norad_id": 36585, "name": "GPS BIIF-1  (PRN 25)", "group": "gps-ops", "lat": -41.425946060570475, "lon": 75.19404570064101, "alt_km": 20517.948329313742, "timestamp": "2025-12-19T06:59:44.167187+00:00", "meta": {"OBJECT_NAME": "GPS BIIF-1  (PRN 25)", "OBJECT_ID": "2010-022A", "EPOCH": "2025-12-18T07:00:57.218688", "MEAN_MOTION": 2.00553566, "ECCENTRICITY": 0.01263334, "INCLINATION": 54.2992, "RA_OF_ASC_NODE": 215.8499, "ARG_OF_PERICENTER": 65.1411, "MEAN_ANOMALY": 167.812, "EPHEMERIS_TYPE": 0, "CLASSIFICATION_TYPE": "U", "NORAD_CAT_ID": 36585, "ELEMENT_SET_NO": 999, "REV_AT_EPOCH": 11396, "BSTAR": 0, "MEAN_MOTION_DOT": 8.3e-07, "MEAN_MOTION_DDOT": 0}, "tle": {"line1": "1 36585U 10022A   25352.29232892  .00000083  00000+0  00000+0 0  9995", "line2": "2 36585  54.2992 215.8499 0126333  65.1411 167.8120  2.00553566113961"}}, "geometry": {"type": "Point", "coordinates": [75.19404570064101, -41.425946060570475]}}, {"type": "Feature", "properties": {"norad_id": 38833, "name": "GPS BIIF-3  (PRN 24)", "group": "gps-ops", "lat": -23.62223500159776, "lon": 132.09905824049542, "alt_km": 20209.50685567408, "timestamp": "2025-12-19T06:59:44.167198+00:00", "meta": {"OBJECT_NAME": "GPS BIIF-3  (PRN 24)", "OBJECT_ID": "2012-053A", "EPOCH": "2025-12-18T08:03:02.727072", "MEAN_MOTION": 2.00565083, "ECCENTRICITY": 0.01760229, "INCLINATION": 53.559, "RA_OF_ASC_NODE": 151.0095, "ARG_OF_PERICENTER": 64.0757, "MEAN_ANOMALY": 297.7154, "EPHEMERIS_TYPE": 0, "CLASSIFICATION_TYPE": "U", "NORAD_CAT_ID": 38833, "ELEMENT_SET_NO": 999, "REV_AT_EPOCH": 9581, "BSTAR": 0, "MEAN_MOTION_DOT": 6.1e-07, "MEAN_MOTION_DDOT": 0}, "tle": {"line1": "1 38833U 12053A   25352.33544823  .00000061  00000+0  00000+0 0  9990", "line2": "2 38833  53.5590 151.0095 0176022  64.0757 297.7154  2.00565083 95819"}}, "geometry": {"type": "Point", "coordinates": [132.09905824049542, -23.62223500159776]}}, {"type": "Feature", "properties": {"norad_id": 39166, "name": "GPS BIIF-4  (PRN 27)", "group": "gps-ops", "lat": 50.15208132027693, "lon": -25.576165146181637, "alt_km": 19834.450613329132, "timestamp": "2025-12-19T06:59:44.167210+00:00", "meta": {"OBJECT_NAME": "GPS BIIF-4  (PRN 27)", "OBJECT_ID": "2013-023A", "EPOCH": "2025-12-18T04:47:18.266208", "MEAN_MOTION": 2.00564721, "ECCENTRICITY": 0.01382651, "INCLINATION": 54.6473, "RA_OF_ASC_NODE": 276.3463, "ARG_OF_PERICENTER": 48.6769, "MEAN_ANOMALY": 312.5268, "EPHEMERIS_TYPE": 0, "CLASSIFICATION_TYPE": "U", "NORAD_CAT_ID": 39166, "ELEMENT_SET_NO": 999, "REV_AT_EPOCH": 9225, "BSTAR": 0, "MEAN_MOTION_DOT": -3.9e-07, "MEAN_MOTION_DDOT": 0}, "tle": {"line1": "1 39166U 13023A   25352.19951697 -.00000039  00000+0  00000+0 0  9999", "line2": "2 39166  54.6473 276.3463 0138265  48.6769 312.5268  2.00564721 92254"}}, "geometry": {"type": "Point", "coordinates": [-25.576165146181637, 50.15208132027693]}}, {"type": "Feature", "properties": {"norad_id": 39533, "name": "GPS BIIF-5  (PRN 30)", "group": "gps-ops", "lat": 49.97467405738021, "lon": -141.97928491405426, "alt_km": 20365.153932885838, "timestamp": "2025-12-19T06:59:44.167221+00:00", "meta": {"OBJECT_NAME": "GPS BIIF-5  (PRN 30)", "OBJECT_ID": "2014-008A", "EPOCH": "2025-12-17T04:42:21.782016", "MEAN_MOTION": 2.00574699, "ECCENTRICITY": 0.00793343, "INCLINATION": 53.632, "RA_OF_ASC_NODE": 156.7429, "ARG_OF_PERICENTER": 226.5757, "MEAN_ANOMALY": 132.7662, "EPHEMERIS_TYPE": 0, "CLASSIFICATION_TYPE": "U", "NORAD_CAT_ID": 39533, "ELEMENT_SET_NO": 999, "REV_AT_EPOCH": 8603, "BSTAR": 0, "MEAN_MOTION_DOT": 7.8e-07, "MEAN_MOTION_DDOT": 0}, "tle": {"line1": "1 39533U 14008A   25351.19608544  .00000078  00000+0  00000+0 0  9992", "line2": "2 39533  53.6320 156.7429 0079334 226.5757 132.7662  2.00574699 86034"}}, "geometry": {"type": "Point", "coordinates": [-141.97928491405426, 49.97467405738021]}}, {"type": "Feature", "properties": {"norad_id": 39741, "name": "GPS BIIF-6  (PRN 06)", "group": "gps-ops", "lat": -37.92182184937843, "lon": -170.5327628654638, "alt_km": 20189.382518892042, "timestamp": "2025-12-19T06:59:44.167232+00:00", "meta": {"OBJECT_NAME": "GPS BIIF-6  (PRN 06)", "OBJECT_ID": "2014-026A", "EPOCH": "2025-12-18T23:24:45.536256", "MEAN_MOTION": 2.00561013, "ECCENTRICITY": 0.00393418, "INCLINATION": 56.5812, "RA_OF_ASC_NODE": 338.5339, "ARG_OF_PERICENTER": 319.0464, "MEAN_ANOMALY": 40.6644, "EPHEMERIS_TYPE": 0, "CLASSIFICATION_TYPE": "U", "NORAD_CAT_ID": 39741, "ELEMENT_SET_NO": 999, "REV_AT_EPOCH": 8492, "BSTAR": 0, "MEAN_MOTION_DOT": -8.1e-07, "MEAN_MOTION_DDOT": 0}, "tle": {"line1": "1 39741U 14026A   25352.97552704 -.00000081  00000+0  00000+0 0  9991", "line2": "2 39741  56.5812 338.5339 0039341 319.0464  40.6644  2.00561013 84929"}}, "geometry": {"type": "Point", "coordinates": [-170.5327628654638, -37.92182184937843]}}, {"type": "Feature", "properties": {"norad_id": 40105, "name": "GPS BIIF-7  (PRN 09)", "group": "gps-ops", "lat": 11.561813288350447, "lon": -92.52250047420281, "alt_km": 20119.7096873936, "timestamp": "2025-12-19T06:59:44.167243+00:00", "meta": {"OBJECT_NAME": "GPS BIIF-7  (PRN 09)", "OBJECT_ID": "2014-045A", "EPOCH": "2025-12-18T01:34:21.644256", "MEAN_MOTION": 2.00572958, "ECCENTRICITY": 0.00325491, "INCLINATION": 55.2322, "RA_OF_ASC_NODE": 95.6864, "ARG_OF_PERICENTER": 120.0469, "MEAN_ANOMALY": 240.2601, "EPHEMERIS_TYPE": 0, "CLASSIFICATION_TYPE": "U", "NORAD_CAT_ID": 40105, "ELEMENT_SET_NO": 999, "REV_AT_EPOCH": 8244, "BSTAR": 0, "MEAN_MOTION_DOT": -3.8e-07, "MEAN_MOTION_DDOT": 0}, "tle": {"line1": "1 40105U 14045A   25352.06552829 -.00000038  00000+0  00000+0 0  9998", "line2": "2 40105  55.2322  95.6864 0032549 120.0469 240.2601  2.00572958 82445"}}, "geometry": {"type": "Point", "coordinates": [-92.52250047420281, 11.561813288350447]}}, {"type": "Feature", "properties": {"norad_id": 40294, "name": "GPS BIIF-8  (PRN 03)", "group": "gps-ops", "lat": -53.535433971260716, "lon": -80.04364158798924, "alt_km": 20349.137491711324, "timestamp": "2025-12-19T06:59:44.167255+00:00", "meta": {"OBJECT_NAME": "GPS BIIF-8  (PRN 03)", "OBJECT_ID": "2014-068A", "EPOCH": "2025-12-18T10:36:49.514400", "MEAN_MOTION": 2.0056529, "ECCENTRICITY": 0.00608014, "INCLINATION": 56.862, "RA_OF_ASC_NODE": 37.9254, "ARG_OF_PERICENTER": 69.0723, "MEAN_ANOMALY": 291.6423, "EPHEMERIS_TYPE": 0, "CLASSIFICATION_TYPE": "U", "NORAD_CAT_ID": 40294, "ELEMENT_SET_NO": 999, "REV_AT_EPOCH": 8158, "BSTAR": 0, "MEAN_MOTION_DOT": -6.7e-07, "MEAN_MOTION_DDOT": 0}, "tle": {"line1": "1 40294U 14068A   25352.44223975 -.00000067  00000+0  00000+0 0  9993", "line2": "2 40294  56.8620  37.9254 0060801  69.0723 291.6423  2.00565290 81588"}}, "geometry": {"type": "Point", "coordinates": [-80.04364158798924, -53.535433971260716]}}]}